{
  "type": "FeatureCollection",
  "features": [
    {
      "type": "Feature",
      "properties": {
        "norad_id": 66052,
        "name": "HRC MONOBLOCK CAMERA",
        "group": "stations",
        "lat": -0.08563037940748688,
        "lon": -14.10382776648338,
        "alt_km": 404.17619196697706,
        "timestamp": "2025-12-07T20:38:12.884506+00:00",
        "meta_object_name": "HRC MONOBLOCK CAMERA",
        "meta_object_id": "1998-067XR",
        "meta_epoch": "2025-12-07T05:58:18.700320",
        "meta_mean_motion": 15.53604712,
        "meta_eccentricity": 0.00040184,
        "meta_inclination": 51.6286,
        "meta_ra_of_asc_node": 168.8742,
        "meta_arg_of_pericenter": 162.1137,
        "meta_mean_anomaly": 197.9995,
        "meta_ephemeris_type": 0,
        "meta_classification_type": "U",
        "meta_norad_cat_id": 66052,
        "meta_element_set_no": 999,
        "meta_rev_at_epoch": 798,
        "meta_bstar": 0.00071473095,
        "meta_mean_motion_dot": 0.00046223,
        "meta_mean_motion_ddot": 0,
        "tle_line1": "1 66052U 98067XR  25341.24882755  .00046223  00000+0  71473-3 0  9996",
        "tle_line2": "2 66052  51.6286 168.8742 0004018 162.1137 197.9995 15.53604712  7986"
      },
      "geometry": {
        "type": "Point",
        "coordinates": [
          -14.10382776648338,
          -0.08563037940748688
        ]
      }
    },
    {
      "type": "Feature",
      "properties": {
        "norad_id": 66174,
        "name": "HTV-X1",
        "group": "stations",
        "lat": 22.643547973958107,
        "lon": -32.66080065052736,
        "alt_km": 414.89798564974535,
        "timestamp": "2025-12-07T20:38:12.884516+00:00",
        "meta_object_name": "HTV-X1",
        "meta_object_id": "2025-241A",
        "meta_epoch": "2025-12-07T04:30:36.916128",
        "meta_mean_motion": 15.49384117,
        "meta_eccentricity": 0.00034959,
        "meta_inclination": 51.6302,
        "meta_ra_of_asc_node": 169.9669,
        "meta_arg_of_pericenter": 214.2568,
        "meta_mean_anomaly": 145.8196,
        "meta_ephemeris_type": 0,
        "meta_classification_type": "U",
        "meta_norad_cat_id": 66174,
        "meta_element_set_no": 999,
        "meta_rev_at_epoch": 51,
        "meta_bstar": 0.00024795554,
        "meta_mean_motion_dot": 0.00013419,
        "meta_mean_motion_ddot": 0,
        "tle_line1": "1 66174U 25241A   25341.18792727  .00013419  00000+0  24796-3 0  9994",
        "tle_line2": "2 66174  51.6302 169.9669 0003495 214.2568 145.8196 15.49384117   511"
      },
      "geometry": {
        "type": "Point",
        "coordinates": [
          -32.66080065052736,
          22.643547973958107
        ]
      }
    },
    {
      "type": "Feature",
      "properties": {
        "norad_id": 66515,
        "name": "SZ-21 MODULE",
        "group": "stations",
        "lat": -39.10352418594607,
        "lon": -21.130683691551113,
        "alt_km": 382.01739146742693,
        "timestamp": "2025-12-07T20:38:12.884526+00:00",
        "meta_object_name": "SZ-21 MODULE",
        "meta_object_id": "2025-246C",
        "meta_epoch": "2025-12-07T05:36:05.793696",
        "meta_mean_motion": 15.6209552,
        "meta_eccentricity": 0.00061886,
        "meta_inclination": 41.4776,
        "meta_ra_of_asc_node": 49.6264,
        "meta_arg_of_pericenter": 229.5557,
        "meta_mean_anomaly": 130.4743,
        "meta_ephemeris_type": 0,
        "meta_classification_type": "U",
        "meta_norad_cat_id": 66515,
        "meta_element_set_no": 999,
        "meta_rev_at_epoch": 358,
        "meta_bstar": 0.00038778265,
        "meta_mean_motion_dot": 0.00034807,
        "meta_mean_motion_ddot": 0,
        "tle_line1": "1 66515U 25246C   25341.23340039  .00034807  00000+0  38778-3 0  9998",
        "tle_line2": "2 66515  41.4776  49.6264 0006188 229.5557 130.4743 15.62095520  3586"
      },
      "geometry": {
        "type": "Point",
        "coordinates": [
          -21.130683691551113,
          -39.10352418594607
        ]
      }
    },
    {
      "type": "Feature",
      "properties": {
        "norad_id": 66645,
        "name": "SHENZHOU-22",
        "group": "stations",
        "lat": 40.23229801120222,
        "lon": 119.66618347011153,
        "alt_km": 383.87214591005886,
        "timestamp": "2025-12-07T20:38:12.884537+00:00",
        "meta_object_name": "SHENZHOU-22",
        "meta_object_id": "2025-272A",
        "meta_epoch": "2025-12-07T06:28:07.735872",
        "meta_mean_motion": 15.58832972,
        "meta_eccentricity": 0.00093583,
        "meta_inclination": 41.4682,
        "meta_ra_of_asc_node": 49.9091,
        "meta_arg_of_pericenter": 347.392,
        "meta_mean_anomaly": 12.6683,
        "meta_ephemeris_type": 0,
        "meta_classification_type": "U",
        "meta_norad_cat_id": 66645,
        "meta_element_set_no": 999,
        "meta_rev_at_epoch": 26300,
        "meta_bstar": 0.0003547841,
        "meta_mean_motion_dot": 0.00028044,
        "meta_mean_motion_ddot": 0,
        "tle_line1": "1 66645U 25272A   25341.26953398  .00028044  00000+0  35478-3 0  9992",
        "tle_line2": "2 66645  41.4682  49.9091 0009358 347.3920  12.6683 15.58832972263006"
      },
      "geometry": {
        "type": "Point",
        "coordinates": [
          119.66618347011153,
          40.23229801120222
        ]
      }
    },
    {
      "type": "Feature",
      "properties": {
        "norad_id": 66646,
        "name": "CZ-2F R/B",
        "group": "stations",
        "lat": 41.36178542505945,
        "lon": 133.78077988535196,
        "alt_km": 124.08348089526771,
        "timestamp": "2025-12-07T20:38:12.884551+00:00",
        "meta_object_name": "CZ-2F R/B",
        "meta_object_id": "2025-272B",
        "meta_epoch": "2025-12-07T13:00:15.028704",
        "meta_mean_motion": 16.47453798,
        "meta_eccentricity": 0.002214,
        "meta_inclination": 41.4535,
        "meta_ra_of_asc_node": 41.9834,
        "meta_arg_of_pericenter": 229.6731,
        "meta_mean_anomaly": 130.2205,
        "meta_ephemeris_type": 0,
        "meta_classification_type": "U",
        "meta_norad_cat_id": 66646,
        "meta_element_set_no": 999,
        "meta_rev_at_epoch": 200,
        "meta_bstar": 0.00015075,
        "meta_mean_motion_dot": 0.11903621,
        "meta_mean_motion_ddot": 8.0762e-06,
        "tle_line1": "1 66646U 25272B   25341.54184061  .11903621  80762-5  15075-3 0  9992",
        "tle_line2": "2 66646  41.4535  41.9834 0022140 229.6731 130.2205 16.47453798  2009"
      },
      "geometry": {
        "type": "Point",
        "coordinates": [
          133.78077988535196,
          41.36178542505945
        ]
      }
    },
    {
      "type": "Feature",
      "properties": {
        "norad_id": 66664,
        "name": "SOYUZ-MS 28",
        "group": "stations",
        "lat": 22.64354582085322,
        "lon": -32.66079853110096,
        "alt_km": 414.89798588520625,
        "timestamp": "2025-12-07T20:38:12.884561+00:00",
        "meta_object_name": "SOYUZ-MS 28",
        "meta_object_id": "2025-275A",
        "meta_epoch": "2025-12-07T04:30:36.916128",
        "meta_mean_motion": 15.49384117,
        "meta_eccentricity": 0.00034959,
        "meta_inclination": 51.6302,
        "meta_ra_of_asc_node": 169.9669,
        "meta_arg_of_pericenter": 214.2568,
        "meta_mean_anomaly": 145.8196,
        "meta_ephemeris_type": 0,
        "meta_classification_type": "U",
        "meta_norad_cat_id": 66664,
        "meta_element_set_no": 999,
        "meta_rev_at_epoch": 128,
        "meta_bstar": 0.00024795554,
        "meta_mean_motion_dot": 0.00013419,
        "meta_mean_motion_ddot": 0,
        "tle_line1": "1 66664U 25275A   25341.18792727  .00013419  00000+0  24796-3 0  9995",
        "tle_line2": "2 66664  51.6302 169.9669 0003495 214.2568 145.8196 15.49384117  1280"
      },
      "geometry": {
        "type": "Point",
        "coordinates": [
          -32.66079853110096,
          22.64354582085322
        ]
      }
    },
    {
      "type": "Feature",
      "properties": {
        "norad_id": 66906,
        "name": "1998-067XS",
        "group": "stations",
        "lat": 12.312651119927704,
        "lon": -23.347947595195194,
        "alt_km": 412.42588105658524,
        "timestamp": "2025-12-07T20:38:12.884571+00:00",
        "meta_object_name": "1998-067XS",
        "meta_object_id": "1998-067XS",
        "meta_epoch": "2025-12-06T23:49:06.838464",
        "meta_mean_motion": 15.5014949,
        "meta_eccentricity": 0.00041336,
        "meta_inclination": 51.6299,
        "meta_ra_of_asc_node": 170.9119,
        "meta_arg_of_pericenter": 177.8938,
        "meta_mean_anomaly": 182.2069,
        "meta_ephemeris_type": 0,
        "meta_classification_type": "U",
        "meta_norad_cat_id": 66906,
        "meta_element_set_no": 999,
        "meta_rev_at_epoch": 72,
        "meta_bstar": 0.00062682756,
        "meta_mean_motion_dot": 0.00035676,
        "meta_mean_motion_ddot": 0,
        "tle_line1": "1 66906U 98067XS  25340.99244026  .00035676  00000+0  62683-3 0  9991",
        "tle_line2": "2 66906  51.6299 170.9119 0004133 177.8938 182.2069 15.50149490   728"
      },
      "geometry": {
        "type": "Point",
        "coordinates": [
          -23.347947595195194,
          12.312651119927704
        ]
      }
    }
  ]
}